IRIDIUM 155             
1 43573U 18061E   22063.78461051  .00000152  00000+0  47256-4 0  9998
2 43573  86.4020 350.8944 0002518  83.0026 277.1457 14.34219610188991
IRIDIUM 154             
1 43574U 18061F   22063.83535922  .00000146  00000+0  44930-4 0  9993
2 43574  86.4025 350.9318 0001912  91.0962 269.0452 14.34218567189040
IRIDIUM 163             
1 43575U 18061G   22063.53724899  .00000150  00000+0  46384-4 0  9994
2 43575  86.4022 351.0195 0001844  75.3730 284.7670 14.34218058188977
IRIDIUM 156             
1 43576U 18061H   22063.79096362  .00000155  00000+0  48148-4 0  9995
2 43576  86.4022 350.9189 0002200  76.0018 284.1423 14.34218498188993
IRIDIUM 164             
1 43577U 18061J   22063.84169647  .00000159  00000+0  49640-4 0  9991
2 43577  86.4024 350.9143 0001853  86.6347 273.5060 14.34217005189051
IRIDIUM 159             
1 43578U 18061K   22063.32159917  .00000157  00000+0  48885-4 0  9992
2 43578  86.4021 351.1010 0001932  88.1030 272.0387 14.34213636188948
IRIDIUM 180             
1 43922U 19002A   22063.60017697  .00000142  00000+0  43532-4 0  9998
2 43922  86.3934 287.8454 0001328  98.2532 261.8814 14.34217446164597
IRIDIUM 176             
1 43923U 19002B   22063.59076168  .00000361  00000+0  53402-4 0  9995
2 43923  86.6069 287.8845 0002439  90.4779 269.6718 14.72256019168904
IRIDIUM 168             
1 43924U 19002C   22063.59381712  .00000061  00000+0  14736-4 0  9994
2 43924  86.3937 287.8813 0001866  93.8652 266.2757 14.34217585164579
IRIDIUM 173             
1 43925U 19002D   22063.58114262  .00000142  00000+0  43553-4 0  9997
2 43925  86.3933 287.8393 0001845  90.5778 269.5629 14.34219295164551
IRIDIUM 169             
1 43926U 19002E   22063.76045486  .00000185  00000+0  53790-4 0  9990
2 43926  86.4243 319.3800 0006809  93.4277 266.7701 14.38617430165167
IRIDIUM 172             
1 43927U 19002F   22063.57480445  .00000142  00000+0  43735-4 0  9999
2 43927  86.3933 287.8450 0001763  92.3557 267.7841 14.34218658164560
IRIDIUM 175             
1 43928U 19002G   22063.65251794  .00000366  00000+0  54203-4 0  9992
2 43928  86.6071 287.6857 0001921  89.5960 270.5477 14.72254455168904
IRIDIUM 171             
1 43929U 19002H   22063.55577289  .00000141  00000+0  43132-4 0  9992
2 43929  86.3944 287.9855 0001865  93.9957 266.1452 14.34220077164556
IRIDIUM 170             
1 43930U 19002J   22063.59695958  .00000357  00000+0  52694-4 0  9994
2 43930  86.6069 287.8877 0002304  92.9610 267.1871 14.72255884168912
IRIDIUM 167             
1 43931U 19002K   22063.54940365  .00000140  00000+0  42961-4 0  9991
2 43931  86.3934 287.8641 0001587  98.0679 262.0697 14.34222768164553
